start=new Date('2022-05-25T00:00:00.000Z').valueOf();
sats=[{"RA_OF_ASC_NODE":"308.7262","GP_ID":"204453749","MEAN_MOTION":"15.06395457","TLE_LINE1":"1 47868U 21021J   22144.77914595 -.00000346  00000-0 -43587-5 0  9996","LAUNCH_DATE":"2021-03-14","OBJECT_TYPE":"PAYLOAD","TLE_LINE2":"2 47868  53.0571 308.7262 0001445  76.6332 283.4818 15.06395457 68301","ELEMENT_SET_NO":"999","OBJECT_NAME":"STARLINK-2323","INCLINATION":"53.0571","DECAY_DATE":null,"RCS_SIZE":"LARGE","MEAN_ELEMENT_THEORY":"SGP4","PERIOD":"95.592","CLASSIFICATION_TYPE":"U","APOAPSIS":"548.228","NORAD_CAT_ID":"47868","SEMIMAJOR_AXIS":"6925.362","CENTER_NAME":"EARTH","MEAN_ANOMALY":"283.4818","TIME_SYSTEM":"UTC","BSTAR":"-0.00000435870000","COUNTRY_CODE":"US","SITE":"AFETR","ARG_OF_PERICENTER":"76.6332","MEAN_MOTION_DOT":"-0.00000346","FILE":"3462783","REF_FRAME":"TEME","REV_AT_EPOCH":"6830","ECCENTRICITY":"0.00014450","MEAN_MOTION_DDOT":"0.0000000000000","PERIAPSIS":"546.227","EPHEMERIS_TYPE":"0","EPOCH":"2022-05-24T18:41:58.210080","OBJECT_ID":"2021-021J"},{"CLASSIFICATION_TYPE":"U","APOAPSIS":"548.406","NORAD_CAT_ID":"47869","ELEMENT_SET_NO":"999","OBJECT_NAME":"STARLINK-2324","INCLINATION":"53.0551","DECAY_DATE":null,"RCS_SIZE":"LARGE","PERIOD":"95.593","MEAN_ELEMENT_THEORY":"SGP4","OBJECT_TYPE":"PAYLOAD","LAUNCH_DATE":"2021-03-14","TLE_LINE2":"2 47869  53.0551 358.4249 0001683  73.0105 287.1068 15.06391248 67716","RA_OF_ASC_NODE":"358.4249","GP_ID":"204453999","TLE_LINE1":"1 47869U 21021K   22144.84825992  .00002866  00000-0  21125-3 0  9996","MEAN_MOTION":"15.06391248","REV_AT_EPOCH":"6771","ECCENTRICITY":"0.00016830","MEAN_MOTION_DDOT":"0.0000000000000","PERIAPSIS":"546.075","EPHEMERIS_TYPE":"0","OBJECT_ID":"2021-021K","EPOCH":"2022-05-24T20:21:29.657088","ARG_OF_PERICENTER":"73.0105","MEAN_MOTION_DOT":"0.00002866","FILE":"3462783","REF_FRAME":"TEME","COUNTRY_CODE":"US","SITE":"AFETR","SEMIMAJOR_AXIS":"6925.375","CENTER_NAME":"EARTH","MEAN_ANOMALY":"287.1068","TIME_SYSTEM":"UTC","BSTAR":"0.00021125000000"},{"APOAPSIS":"548.568","NORAD_CAT_ID":"47870","CLASSIFICATION_TYPE":"U","INCLINATION":"53.0574","DECAY_DATE":null,"PERIOD":"95.593","MEAN_ELEMENT_THEORY":"SGP4","RCS_SIZE":"LARGE","ELEMENT_SET_NO":"999","OBJECT_NAME":"STARLINK-2326","OBJECT_TYPE":"PAYLOAD","LAUNCH_DATE":"2021-03-14","TLE_LINE2":"2 47870  53.0574  23.3237 0001919  46.2676 313.8472 15.06391577 67154","GP_ID":"204454751","RA_OF_ASC_NODE":"23.3237","MEAN_MOTION":"15.06391577","TLE_LINE1":"1 47870U 21021L   22144.86622180  .00001137  00000-0  95249-4 0  9993","PERIAPSIS":"545.910","EPOCH":"2022-05-24T20:47:21.563520","OBJECT_ID":"2021-021L","EPHEMERIS_TYPE":"0","REV_AT_EPOCH":"6715","MEAN_MOTION_DDOT":"0.0000000000000","ECCENTRICITY":"0.00019190","REF_FRAME":"TEME","MEAN_MOTION_DOT":"0.00001137","ARG_OF_PERICENTER":"46.2676","FILE":"3462783","COUNTRY_CODE":"US","SITE":"AFETR","TIME_SYSTEM":"UTC","BSTAR":"0.00009524900000","SEMIMAJOR_AXIS":"6925.374","MEAN_ANOMALY":"313.8472","CENTER_NAME":"EARTH"},{"MEAN_MOTION_DOT":"0.00003739","ARG_OF_PERICENTER":"62.1281","FILE":"3462783","REF_FRAME":"TEME","REV_AT_EPOCH":"6761","ECCENTRICITY":"0.00017130","MEAN_MOTION_DDOT":"0.0000000000000","PERIAPSIS":"546.036","EPHEMERIS_TYPE":"0","OBJECT_ID":"2021-021M","EPOCH":"2022-05-24T21:51:43.109568","SEMIMAJOR_AXIS":"6925.357","CENTER_NAME":"EARTH","MEAN_ANOMALY":"297.9882","TIME_SYSTEM":"UTC","BSTAR":"0.00026979000000","COUNTRY_CODE":"US","SITE":"AFETR","ELEMENT_SET_NO":"999","OBJECT_NAME":"STARLINK-2327","INCLINATION":"53.0562","DECAY_DATE":null,"RCS_SIZE":"LARGE","PERIOD":"95.592","MEAN_ELEMENT_THEORY":"SGP4","CLASSIFICATION_TYPE":"U","APOAPSIS":"548.408","NORAD_CAT_ID":"47871","RA_OF_ASC_NODE":"358.1442","GP_ID":"204454995","TLE_LINE1":"1 47871U 21021M   22144.91091562  .00003739  00000-0  26979-3 0  9997","MEAN_MOTION":"15.06397249","LAUNCH_DATE":"2021-03-14","OBJECT_TYPE":"PAYLOAD","TLE_LINE2":"2 47871  53.0562 358.1442 0001713  62.1281 297.9882 15.06397249 67610"},{"SEMIMAJOR_AXIS":"6817.933","MEAN_ANOMALY":"73.3054","CENTER_NAME":"EARTH","TIME_SYSTEM":"UTC","BSTAR":"-0.00008204800000","COUNTRY_CODE":"US","SITE":"AFETR","ARG_OF_PERICENTER":"286.7043","MEAN_MOTION_DOT":"-0.00003988","FILE":"3462783","REF_FRAME":"TEME","REV_AT_EPOCH":"6843","MEAN_MOTION_DDOT":"0.0000000000000","ECCENTRICITY":"0.00082620","PERIAPSIS":"434.165","OBJECT_ID":"2021-021N","EPOCH":"2022-05-24T17:51:30.558816","EPHEMERIS_TYPE":"0","GP_ID":"204454249","RA_OF_ASC_NODE":"299.6241","MEAN_MOTION":"15.42139641","TLE_LINE1":"1 47872U 21021N   22144.74410369 -.00003988  00000-0 -82048-4 0  9997","LAUNCH_DATE":"2021-03-14","OBJECT_TYPE":"PAYLOAD","TLE_LINE2":"2 47872  53.0531 299.6241 0008262 286.7043  73.3054 15.42139641 68437","ELEMENT_SET_NO":"999","OBJECT_NAME":"STARLINK-2328","DECAY_DATE":null,"INCLINATION":"53.0531","PERIOD":"93.377","MEAN_ELEMENT_THEORY":"SGP4","RCS_SIZE":"LARGE","CLASSIFICATION_TYPE":"U","APOAPSIS":"445.431","NORAD_CAT_ID":"47872"},{"EPHEMERIS_TYPE":"0","EPOCH":"2022-05-24T19:49:39.075744","OBJECT_ID":"2021-021P","PERIAPSIS":"546.068","ECCENTRICITY":"0.00017240","MEAN_MOTION_DDOT":"0.0000000000000","REV_AT_EPOCH":"6759","REF_FRAME":"TEME","FILE":"3462783","ARG_OF_PERICENTER":"51.7121","MEAN_MOTION_DOT":"0.00012111","SITE":"AFETR","COUNTRY_CODE":"US","BSTAR":"0.00083092000000","TIME_SYSTEM":"UTC","CENTER_NAME":"EARTH","MEAN_ANOMALY":"308.4023","SEMIMAJOR_AXIS":"6925.397","NORAD_CAT_ID":"47873","APOAPSIS":"548.456","CLASSIFICATION_TYPE":"U","RCS_SIZE":"LARGE","MEAN_ELEMENT_THEORY":"SGP4","PERIOD":"95.593","DECAY_DATE":null,"INCLINATION":"53.0532","OBJECT_NAME":"STARLINK-2329","ELEMENT_SET_NO":"999","TLE_LINE2":"2 47873  53.0532 358.5216 0001724  51.7121 308.4023 15.06384198 67592","LAUNCH_DATE":"2021-03-14","OBJECT_TYPE":"PAYLOAD","MEAN_MOTION":"15.06384198","TLE_LINE1":"1 47873U 21021P   22144.82614671  .00012111  00000-0  83092-3 0  9994","RA_OF_ASC_NODE":"358.5216","GP_ID":"204454499"},{"MEAN_MOTION_DDOT":"0.0000000000000","ECCENTRICITY":"0.00020350","REV_AT_EPOCH":"6823","OBJECT_ID":"2021-021Q","EPOCH":"2022-05-24T20:02:12.821568","EPHEMERIS_TYPE":"0","PERIAPSIS":"545.812","FILE":"3462783","MEAN_MOTION_DOT":"0.00000999","ARG_OF_PERICENTER":"41.3344","REF_FRAME":"TEME","SITE":"AFETR","COUNTRY_CODE":"US","MEAN_ANOMALY":"318.7799","CENTER_NAME":"EARTH","SEMIMAJOR_AXIS":"6925.356","BSTAR":"0.00008595200000","TIME_SYSTEM":"UTC","CLASSIFICATION_TYPE":"U","NORAD_CAT_ID":"47874","APOAPSIS":"548.631","OBJECT_NAME":"STARLINK-2330","ELEMENT_SET_NO":"999","MEAN_ELEMENT_THEORY":"SGP4","PERIOD":"95.592","RCS_SIZE":"LARGE","DECAY_DATE":null,"INCLINATION":"53.0576","TLE_LINE2":"2 47874  53.0576 313.4701 0002035  41.3344 318.7799 15.06397439 68236","OBJECT_TYPE":"PAYLOAD","LAUNCH_DATE":"2021-03-14","MEAN_MOTION":"15.06397439","TLE_LINE1":"1 47874U 21021Q   22144.83487062  .00000999  00000-0  85952-4 0  9997","GP_ID":"204455250","RA_OF_ASC_NODE":"313.4701"},{"REF_FRAME":"TEME","ARG_OF_PERICENTER":"85.5850","MEAN_MOTION_DOT":"0.00001185","FILE":"3462783","PERIAPSIS":"546.160","OBJECT_ID":"2021-021R","EPOCH":"2022-05-24T21:13:14.475648","EPHEMERIS_TYPE":"0","REV_AT_EPOCH":"6752","MEAN_MOTION_DDOT":"0.0000000000000","ECCENTRICITY":"0.00015680","TIME_SYSTEM":"UTC","BSTAR":"0.00009846500000","SEMIMAJOR_AXIS":"6925.381","MEAN_ANOMALY":"274.5318","CENTER_NAME":"EARTH","COUNTRY_CODE":"US","SITE":"AFETR","INCLINATION":"53.0561","DECAY_DATE":null,"MEAN_ELEMENT_THEORY":"SGP4","PERIOD":"95.593","RCS_SIZE":"LARGE","ELEMENT_SET_NO":"999","OBJECT_NAME":"STARLINK-2331","APOAPSIS":"548.332","NORAD_CAT_ID":"47875","CLASSIFICATION_TYPE":"U","GP_ID":"204455494","RA_OF_ASC_NODE":"8.2638","TLE_LINE1":"1 47875U 21021R   22144.88419532  .00001185  00000-0  98465-4 0  9991","MEAN_MOTION":"15.06389315","OBJECT_TYPE":"PAYLOAD","LAUNCH_DATE":"2021-03-14","TLE_LINE2":"2 47875  53.0561   8.2638 0001568  85.5850 274.5318 15.06389315 67522"},{"SITE":"AFETR","COUNTRY_CODE":"US","MEAN_ANOMALY":"310.3565","CENTER_NAME":"EARTH","SEMIMAJOR_AXIS":"6925.367","BSTAR":"0.00014404000000","TIME_SYSTEM":"UTC","MEAN_MOTION_DDOT":"0.0000000000000","ECCENTRICITY":"0.00017880","REV_AT_EPOCH":"6747","EPOCH":"2022-05-24T20:57:18.839808","OBJECT_ID":"2021-021S","EPHEMERIS_TYPE":"0","PERIAPSIS":"545.994","FILE":"3462783","ARG_OF_PERICENTER":"49.7580","MEAN_MOTION_DOT":"0.00001864","REF_FRAME":"TEME","TLE_LINE2":"2 47876  53.0569   8.3127 0001788  49.7580 310.3565 15.06393913 67477","LAUNCH_DATE":"2021-03-14","OBJECT_TYPE":"PAYLOAD","TLE_LINE1":"1 47876U 21021S   22144.87313472  .00001864  00000-0  14404-3 0  9991","MEAN_MOTION":"15.06393913","GP_ID":"204453750","RA_OF_ASC_NODE":"8.3127","CLASSIFICATION_TYPE":"U","NORAD_CAT_ID":"47876","APOAPSIS":"548.470","OBJECT_NAME":"STARLINK-2332","ELEMENT_SET_NO":"999","MEAN_ELEMENT_THEORY":"SGP4","PERIOD":"95.593","RCS_SIZE":"LARGE","DECAY_DATE":null,"INCLINATION":"53.0569"},{"EPHEMERIS_TYPE":"0","EPOCH":"2022-05-24T21:18:33.018624","OBJECT_ID":"2021-021T","PERIAPSIS":"546.099","ECCENTRICITY":"0.00016430","MEAN_MOTION_DDOT":"0.0000000000000","REV_AT_EPOCH":"6746","REF_FRAME":"TEME","FILE":"3462783","MEAN_MOTION_DOT":"0.00000801","ARG_OF_PERICENTER":"58.9588","SITE":"AFETR","COUNTRY_CODE":"US","BSTAR":"0.00007265800000","TIME_SYSTEM":"UTC","CENTER_NAME":"EARTH","MEAN_ANOMALY":"301.1562","SEMIMAJOR_AXIS":"6925.372","NORAD_CAT_ID":"47877","APOAPSIS":"548.375","CLASSIFICATION_TYPE":"U","RCS_SIZE":"LARGE","MEAN_ELEMENT_THEORY":"SGP4","PERIOD":"95.593","DECAY_DATE":null,"INCLINATION":"53.0569","OBJECT_NAME":"STARLINK-2333","ELEMENT_SET_NO":"999","TLE_LINE2":"2 47877  53.0569   8.2435 0001643  58.9588 301.1562 15.06392403 67466","LAUNCH_DATE":"2021-03-14","OBJECT_TYPE":"PAYLOAD","TLE_LINE1":"1 47877U 21021T   22144.88788216  .00000801  00000-0  72658-4 0  9991","MEAN_MOTION":"15.06392403","RA_OF_ASC_NODE":"8.2435","GP_ID":"204454000"}];
